BEIDOU-2 IGSO-1 (C06)   
1 36828U 10036A   25193.90166296 -.00000098  00000+0  00000+0 0  9992
2 36828  54.2806 166.0307 0049442 217.9615 339.2721  1.00269437 54694
BEIDOU-2 G4 (C04)       
1 37210U 10057A   25195.61019738 -.00000106  00000+0  00000+0 0  9999
2 37210   2.8053  70.4290 0005232 168.9951  72.9243  1.00270226 53900
BEIDOU-2 IGSO-2 (C07)   
1 37256U 10068A   25195.64428255 -.00000188  00000+0  00000+0 0  9992
2 37256  48.1554 276.0148 0048073 214.1535 142.2760  1.00280839 53408
BEIDOU-2 IGSO-3 (C08)   
1 37384U 11013A   25195.52555634 -.00000161  00000+0  00000+0 0  9995
2 37384  61.9231  43.3469 0031629 175.5554   9.5041  1.00259513 52272
BEIDOU-2 IGSO-4 (C09)   
1 37763U 11038A   25194.59737804  .00000012  00000+0  00000+0 0  9994
2 37763  54.5828 168.7067 0144651 231.1972 202.0427  1.00272241 51249
BEIDOU-2 IGSO-5 (C10)   
1 37948U 11073A   25195.61815769 -.00000140  00000+0  00000+0 0  9992
2 37948  48.2924 275.7199 0109494 220.4110 114.9835  1.00281808 49742
BEIDOU-2 G5 (C05)       
1 38091U 12008A   25195.57070948  .00000064  00000+0  00000+0 0  9992
2 38091   2.7285  71.2277 0006183 261.2572 224.3884  1.00267740 48983
BEIDOU-2 M3 (C11)       
1 38250U 12018A   25193.29529497 -.00000064  00000+0  00000+0 0  9996
2 38250  56.0463 316.3117 0021683 266.2673  93.4968  1.86233630 89961
BEIDOU-2 M4 (C12)       
1 38251U 12018B   25195.37544461 -.00000063  00000+0  00000+0 0  9995
2 38251  55.9475 315.4834 0012668 265.8515  94.0230  1.86231969 89650
BEIDOU-2 M6 (C14)       
1 38775U 12050B   25192.93814615 -.00000020  00000+0  00000+0 0  9995
2 38775  56.2406  74.1706 0013125 352.8640   7.1898  1.86231088 86970
BEIDOU-2 G6 (C02)       
1 38953U 12059A   25195.57593008 -.00000169  00000+0  00000+0 0  9999
2 38953   3.5600  77.0768 0008678 321.3082 185.5609  1.00274876 46523
BEIDOU-3S IGSO-1S (C31) 
1 40549U 15019A   25194.75877869 -.00000171  00000+0  00000+0 0  9994
2 40549  49.8367 299.5389 0040741 193.4932 167.0274  1.00272052 37683
BEIDOU-3S M2S (C58)     
1 40748U 15037A   25195.04207734 -.00000062  00000+0  00000+0 0  9995
2 40748  55.1683 313.6683 0009876 250.1985 109.7163  1.86229207 67820
BEIDOU-3S M1S (C57)     
1 40749U 15037B   25192.07099547 -.00000067  00000+0  00000+0 0  9992
2 40749  55.1677 313.7612 0002717  21.7070 338.3152  1.86253919 67770
BEIDOU-3S IGSO-2S (C56) 
1 40938U 15053A   25195.63795350 -.00000103  00000+0  00000+0 0  9991
2 40938  49.7428 262.7950 0060427 189.9542 164.4700  1.00260887 35965
BEIDOU-2 IGSO-6 (C13)   
1 41434U 16021A   25195.57416053 -.00000142  00000+0  00000+0 0  9995
2 41434  59.7492  41.4051 0054083 227.8566 325.6734  1.00282191 34095
BEIDOU-2 G7 (C03)       
1 41586U 16037A   25195.64417514 -.00000346  00000+0  00000+0 0  9997
2 41586   1.8286  69.2207 0009475  13.6943 192.1897  1.00265940  3500
BEIDOU-3 M1 (C19)       
1 43001U 17069A   25194.85158581 -.00000018  00000+0  00000+0 0  9991
2 43001  56.3907  74.2545 0009317 320.5809  39.4262  1.86231318 52303
BEIDOU-3 M2 (C20)       
1 43002U 17069B   25194.25269302 -.00000017  00000+0  00000+0 0  9999
2 43002  56.3898  74.3099 0008181 349.2137  10.8437  1.86230853 52285
BEIDOU-3 M7 (C27)       
1 43107U 18003A   25193.46078420 -.00000063  00000+0  00000+0 0  9996
2 43107  54.6280 314.1413 0004137  92.0893 267.9740  1.86232580 51023
BEIDOU-3 M8 (C28)       
1 43108U 18003B   25193.94138303 -.00000062  00000+0  00000+0 0  9996
2 43108  54.6205 314.1084 0003321 251.2655 108.7162  1.86230985 51043
BEIDOU-3 M4 (C22)       
1 43207U 18018A   25191.16109674 -.00000032  00000+0  00000+0 0  9990
2 43207  56.3462  74.4525 0006939  18.5688 341.5209  1.86231401 50379
BEIDOU-3 M3 (C21)       
1 43208U 18018B   25194.44939852 -.00000018  00000+0  00000+0 0  9998
2 43208  56.3486  74.3476 0007599 337.6959  22.3460  1.86231137 50435
BEIDOU-3 M9 (C29)       
1 43245U 18029A   25193.59276731 -.00000060  00000+0  00000+0 0  9993
2 43245  54.5002 311.8063 0001102 194.9375 165.0790  1.86232744 49570
BEIDOU-3 M10 (C30)      
1 43246U 18029B   25193.52594495 -.00000060  00000+0  00000+0 0  9997
2 43246  54.4976 311.8353 0003087  26.8068 333.2285  1.86229197 49552
BEIDOU-2 IGSO-7 (C16)   
1 43539U 18057A   25194.66767678 -.00000096  00000+0  00000+0 0  9993
2 43539  55.1704 165.9880 0089812 236.4644 239.4136  1.00248689 25735
BEIDOU-3 M5 (C23)       
1 43581U 18062A   25194.28787453  .00000087  00000+0  00000+0 0  9996
2 43581  54.1009 193.8256 0005640 283.6027  76.3400  1.86228620 47331
BEIDOU-3 M6 (C24)       
1 43582U 18062B   25194.15181482  .00000086  00000+0  00000+0 0  9992
2 43582  54.1007 193.8193 0004713   2.1406 357.8673  1.86229575 47323
BEIDOU-3 M12 (C26)      
1 43602U 18067A   25194.62487049  .00000088  00000+0  00000+0 0  9992
2 43602  54.1938 192.5204 0007307  23.7839 336.2517  1.86227713 46812
BEIDOU-3 M11 (C25)      
1 43603U 18067B   25193.14811813  .00000085  00000+0  00000+0 0  9996
2 43603  54.1910 192.5348 0004181   6.1637 353.8492  1.86227249 46811
BEIDOU-3 M13 (C32)      
1 43622U 18072A   25194.71738528 -.00000018  00000+0  00000+0 0  9995
2 43622  56.3227  73.8542 0006076 324.9769  35.0583  1.86231369 46353
BEIDOU-3 M14 (C33)      
1 43623U 18072B   25194.58286208 -.00000018  00000+0  00000+0 0  9994
2 43623  56.3243  73.8524 0005189   1.5500 358.5268  1.86231386 46348
BEIDOU-3 M16 (C35)      
1 43647U 18078A   25192.59457348 -.00000063  00000+0  00000+0 0  9990
2 43647  54.3974 311.9065 0006476  31.4662 328.5881  1.86232268 45819
BEIDOU-3 M15 (C34)      
1 43648U 18078B   25195.40854854 -.00000062  00000+0  00000+0 0  9996
2 43648  54.3906 311.8101 0003375  49.2108 310.8430  1.86232319 45880
BEIDOU-3 G1 (C59)       
1 43683U 18085A   25195.60257538 -.00000270  00000+0  00000+0 0  9992
2 43683   2.7329 107.4944 0004389 353.1385 189.0469  1.00273940 24672
BEIDOU-3 M17 (C36)      
1 43706U 18093A   25193.41657521  .00000085  00000+0  00000+0 0  9993
2 43706  54.1841 193.8224 0010283 286.4821  73.4141  1.86228347 45212
BEIDOU-3 M18 (C37)      
1 43707U 18093B   25193.81572426  .00000086  00000+0  00000+0 0  9999
2 43707  54.1850 193.8006 0008159 312.5010  47.4374  1.86229885 45218
BEIDOU-3 IGSO-1 (C38)   
1 44204U 19023A   25195.48042856 -.00000200  00000+0  00000+0 0  9999
2 44204  58.2155  41.1358 0023600 215.7026 326.7804  1.00289196  3827
BEIDOU-2 G8 (C01)       
1 44231U 19027A   25195.60489627 -.00000240  00000+0  00000+0 0  9992
2 44231   1.7574  75.2149 0003642 254.0511 325.7414  1.00272997 22693
BEIDOU-3 IGSO-2 (C39)   
1 44337U 19035A   25195.31433641 -.00000107  00000+0  00000+0 0  9993
2 44337  55.2160 161.8313 0035698 210.5868 152.4561  1.00262264 22287
BEIDOU-3 M24 (C46)      
1 44542U 19061A   25193.34988760  .00000086  00000+0  00000+0 0  9993
2 44542  54.4116 194.1883 0008198 350.1827   9.8118  1.86229237 39467
BEIDOU-3 M23 (C45)      
1 44543U 19061B   25193.77632280  .00000086  00000+0  00000+0 0  9994
2 44543  54.4106 194.1425 0005690 329.8158 228.8432  1.86229369 39472
BEIDOU-3 IGSO-3 (C40)   
1 44709U 19073A   25194.65275713 -.00000177  00000+0  00000+0 0  9995
2 44709  55.3791 284.5555 0045144 189.2641 170.7457  1.00290814 21064
BEIDOU-3 M22 (C44)      
1 44793U 19078A   25194.26577317 -.00000060  00000+0  00000+0 0  9996
2 44793  54.2425 311.7324 0005391  40.9564 319.1061  1.86232198 38336
BEIDOU-3 M21 (C43)      
1 44794U 19078B   25194.39989189 -.00000060  00000+0  00000+0 0  9995
2 44794  54.2159 311.6957 0003341  38.6937 321.3528  1.86227767 38343
BEIDOU-3 M19 (C41)      
1 44864U 19090A   25195.44879017 -.00000021  00000+0  00000+0 0  9999
2 44864  56.2570  73.9798 0016738 291.6106 245.9511  1.86231599 37940
BEIDOU-3 M20 (C42)      
1 44865U 19090B   25195.16636153 -.00000020  00000+0  00000+0 0  9990
2 44865  56.2582  74.0232 0014621 306.3546 131.4914  1.86231500 37926
BEIDOU-3 G2 (C60)       
1 45344U 20017A   25195.63177676 -.00000135  00000+0  00000+0 0  9993
2 45344   2.9183  41.0152 0001791  72.9873 126.1976  1.00272306 19870
BEIDOU-3 G3 (C61)       
1 45807U 20040A   25195.64417515 -.00000347  00000+0  00000+0 0  9998
2 45807   1.6236  64.6600 0004440 349.5883 220.9399  1.00269010 18684
BEIDOU-3 G4 (C62)       
1 56564U 23066A   25195.61010535 -.00000104  00000+0  00000+0 0  9990
2 56564   1.1606 293.4069 0006850 192.5600 186.3703  1.00270174  8016
BEIDOU-3 M28 (C50)      
1 58654U 23207A   25195.01636855 -.00000021  00000+0  00000+0 0  9990
2 58654  55.4460  73.7381 0002232 348.3040  11.7647  1.86229911 10549
BEIDOU-3 M26 (C48)      
1 58655U 23207B   25195.35227631 -.00000022  00000+0  00000+0 0  9997
2 58655  55.4485  73.7127 0002002 305.4286  54.6263  1.86231630 10536
BEIDOU-3 M25 (C47)      
1 61186U 24168B   25194.10044675 -.00000062  00000+0  00000+0 0  9998
2 61186  54.7732 314.0068 0003634 283.9424  74.3901  1.86230077  5465
BEIDOU-3 M27 (C49)      
1 61187U 24168C   25193.62784985 -.00000062  00000+0  00000+0 0  9990
2 61187  54.7691 314.0074 0000866  27.5649 148.8095  1.86230143  2936
